satname,norad_id,inclination_deg,eccentricity,mean_motion_rev_per_day,perigee_km,apogee_km,l1,l2
STARLINK-1522,46027,53.055,0.0001707,15.06395785,546.0423171323182,548.4066355403393,1 46027U 20055A   26033.66456788  .00001356  00000+0  10993-3 0  9994,2 46027  53.0550 283.8530 0001707  94.8517 265.2667 15.06395785303602
STARLINK-1523,46028,53.054,0.000134,15.06394344,546.300893788266,548.1568918475414,1 46028U 20055B   26033.08219789  .00000802  00000+0  72763-4 0  9998,2 46028  53.0540 286.4668 0001340  87.7501 272.3641 15.06394344303533
STARLINK-1526,46029,53.0548,0.0001385,15.06406921,546.2311883138555,548.1495039887395,1 46029U 20055C   26033.07482765  .00001523  00000+0  12110-3 0  9994,2 46029  53.0548 286.4990 0001385  89.1349 270.9799 15.06406921303527
STARLINK-1555,46032,53.0534,0.0001369,15.06444463,546.127227036588,548.0233501612056,1 46032U 20055F   26032.99370852  .00013906  00000+0  94949-3 0  9999,2 46032  53.0534 286.8638 0001369  89.3683 270.7463 15.06444463303512
STARLINK-1556,46033,53.0541,0.000174,15.06412049,545.9696255112203,548.3796339583678,1 46033U 20055G   26033.10799018  .00004593  00000+0  32697-3 0  9997,2 46033  53.0541 286.3492 0001740 103.9178 256.2004 15.06412049303503
STARLINK-1557,46034,53.0533,0.0001678,15.06408565,546.0232384880301,548.3473766544512,1 46034U 20055H   26033.11167572  .00001083  00000+0  91605-4 0  9999,2 46034  53.0533 286.3325 0001678  95.7886 264.3295 15.06408565303504
STARLINK-1558,46035,53.0548,0.0001611,15.06395094,546.1109180874719,548.342270237511,1 46035U 20055J   26033.38444508  .00001280  00000+0  10483-3 0  9999,2 46035  53.0548 285.1081 0001611  98.9759 261.1413 15.06395094303574
STARLINK-1560,46036,53.0531,0.0001383,15.06415063,546.207623076566,548.123161718303,1 46036U 20055K   26033.10430583  .00002616  00000+0  19436-3 0  9999,2 46036  53.0531 286.3666 0001383  95.9393 264.1753 15.06415063303531
STARLINK-1567,46038,53.0554,0.0001683,15.0639517,546.0608225784863,548.3918998858771,1 46038U 20055M   26033.11536461 -.00000675  00000+0 -26397-4 0  9994,2 46038  53.0554 286.3174 0001683  89.0958 271.0224 15.06395170303521
STARLINK-1569,46039,53.0524,0.0001539,15.06397076,546.154707069375,548.2863321139048,1 46039U 20055N   26032.92370480  .00004379  00000+0  31274-3 0  9992,2 46039  53.0524 287.1773 0001539  95.0895 265.0270 15.06397076303497
STARLINK-1582,46043,53.054,0.0001469,15.06403069,546.1848195898474,548.219484232679,1 46043U 20055S   26033.13010789  .00001278  00000+0  10465-3 0  9998,2 46043  53.0540 286.2504 0001469  95.4851 264.6305 15.06403069303528
STARLINK-1591,46045,53.0533,0.0001405,15.06405492,546.221716692934,548.1677349078846,1 46045U 20055U   26033.42129949 -.00000174  00000+0  72221-5 0  9996,2 46045  53.0533 284.9433 0001405  87.3133 272.8017 15.06405492303557
STARLINK-1524,46047,53.0526,0.0001466,15.06405309,546.1800329524758,548.2105403789274,1 46047U 20055W   26033.63970602  .00005181  00000+0  36642-3 0  9998,2 46047  53.0526 273.9625 0001466  87.8896 272.2261 15.06405309303743
STARLINK-1527,46048,53.0538,0.0001507,15.06397923,546.1742726644552,548.2615746384445,1 46048U 20055X   26033.37061573 -.00000824  00000+0 -36429-4 0  9993,2 46048  53.0538 275.1724 0001507  90.9244 269.1917 15.06397923303687
STARLINK-1540,46051,53.055,0.0001511,15.06391618,546.1908236313438,548.2836717289929,1 46051U 20055AA  26033.40378665  .00000110  00000+0  26318-4 0  9996,2 46051  53.0550 275.0228 0001511  88.6169 271.4993 15.06391618303728
STARLINK-1541,46052,53.054,0.0001401,15.06394855,546.2570831249768,548.1975702093096,1 46052U 20055AB  26033.65443543  .00002744  00000+0  20309-3 0  9990,2 46052  53.0540 273.8971 0001401  85.2086 274.9063 15.06394855303720
STARLINK-1543,46053,53.0542,0.0002064,15.06422218,545.7140859174633,548.5728416929223,1 46053U 20055AC  26033.65811259  .00002987  00000+0  21923-3 0  9996,2 46053  53.0542 273.8802 0002064  87.3986 272.7240 15.06422218303755
STARLINK-1548,46054,53.054,0.0001482,15.06400654,546.1832171639635,548.2358898824277,1 46054U 20055AD  26033.06836704  .00001412  00000+0  11366-3 0  9996,2 46054  53.0540 276.5264 0001482  94.4430 265.6728 15.06400654303664
STARLINK-1554,46055,53.0536,0.0001433,15.06397226,546.2276561951167,548.2124635284727,1 46055U 20055AE  26033.65076437  .00005541  00000+0  39062-3 0  9991,2 46055  53.0536 273.9136 0001433  83.1339 276.9813 15.06397226303758
STARLINK-1564,46058,53.055,0.0001583,15.06397099,546.1241650155325,548.3167331839177,1 46058U 20055AH  26032.93204338  .00001340  00000+0  10885-3 0  9992,2 46058  53.0550 277.6033 0001583  87.6125 272.5046 15.06397099303637
STARLINK-1570,46059,53.0538,0.0001498,15.06405627,546.1568974168531,548.2317266779428,1 46059U 20055AJ  26033.09416759  .00000553  00000+0  55995-4 0  9990,2 46059  53.0538 276.4133 0001498  92.1802 267.9359 15.06405627303621
STARLINK-1572,46060,53.0532,0.0001346,15.06390044,546.3099157893439,548.174227835475,1 46060U 20055AK  26033.62126184  .00001674  00000+0  13125-3 0  9994,2 46060  53.0532 274.0467 0001346 100.2434 259.8706 15.06390044303717
STARLINK-1573,46061,53.0562,0.0001583,15.06398587,546.1196052208907,548.3121719454166,1 46061U 20055AL  26033.21949613 -.00000396  00000+0 -76950-5 0  9999,2 46061  53.0562 275.8884 0001583  71.2609 288.8551 15.06398587303683
STARLINK-1577,46063,53.0536,0.0001482,15.06404382,546.1717931060211,548.2244624378918,1 46063U 20055AN  26033.04624705  .00000865  00000+0  76962-4 0  9995,2 46063  53.0536 276.6267 0001482  89.0934 271.0225 15.06404382303656
STARLINK-1583,46064,53.0549,0.0001574,15.06397768,546.1283477655015,548.3084496450138,1 46064U 20055AP  26033.07943120 -.00000225  00000+0  38031-5 0  9991,2 46064  53.0549 276.4772 0001574 100.1052 260.0115 15.06397768303664
STARLINK-1525,46066,53.0544,0.0001348,15.06406254,546.2588559935066,548.1259247971584,1 46066U 20055AR  26033.60834653  .00001020  00000+0  87377-4 0  9991,2 46066  53.0544 254.1028 0001348  91.4121 268.7023 15.06406254304010
STARLINK-1536,46070,53.0544,0.0001476,15.06398639,546.1935471475663,548.2379112732287,1 46070U 20055AV  26033.58623821  .00001563  00000+0  12378-3 0  9996,2 46070  53.0544 254.2021 0001476  93.0800 267.0358 15.06398639304024
STARLINK-1542,46073,53.0553,0.0001336,15.06379429,546.3493708174465,548.1998407985184,1 46073U 20055AY  26033.64524012  .00000345  00000+0  42050-4 0  9996,2 46073  53.0553 253.9369 0001336  85.5851 274.5290 15.06379429304029
